     2.11           N: GPS NAV DATA                         RINEX VERSION / TYPE
teqc  2018Mar15                         20180319 14:17:33UTCPGM / RUN BY / DATE
Linux 2.6.32-573.12.1.x86_64|x86_64|gcc -static|Linux 64|=+ COMMENT
    1.1176D-08  7.4506D-09 -5.9605D-08 -5.9605D-08          ION ALPHA
    9.0112D+04  0.0000D+00 -1.9661D+05 -6.5536D+04          ION BETA
   -1.862645149231D-09-2.664535259100D-15   405504      200 DELTA-UTC: A0,A1,T,W
                                                            END OF HEADER
27 18  3 15 10  0  0.0 3.695092163980D-04 6.821210263297D-13 0.000000000000D+00
    2.100000000000D+01 9.496875000000D+01 4.192674641728D-09 1.415706906972D+00
    4.891306161881D-06 5.675847409293D-03 6.200745701790D-06 5.153683118820D+03
    3.816000000000D+05 5.587935447693D-09-2.428261528645D+00 1.098960638046D-07
    9.770566774867D-01 2.671250000000D+02 3.677821752838D-01-8.111766459061D-09
    3.771585673111D-10 1.000000000000D+00 1.992000000000D+03 0.000000000000D+00
    2.000000000000D+00 0.000000000000D+00 1.862645149231D-09 2.100000000000D+01
    3.809160000000D+05 4.000000000000D+00
30 18  3 15 10  0  0.0 9.473366662860D-05-3.637978807092D-12 0.000000000000D+00
    7.500000000000D+01-3.446875000000D+01 5.129856536258D-09-1.333302410997D+00
   -1.896172761917D-06 3.110395278782D-03 5.403533577919D-06 5.153754703522D+03
    3.816000000000D+05-3.725290298462D-08 1.818468382484D+00-5.960464477539D-08
    9.445200320563D-01 2.668125000000D+02-3.132771491639D+00-8.382492021582D-09
   -4.278749655669D-10 1.000000000000D+00 1.992000000000D+03 0.000000000000D+00
    2.000000000000D+00 0.000000000000D+00 3.725290298462D-09 7.500000000000D+01
    3.809160000000D+05 4.000000000000D+00
 7 18  3 15 10  0  0.0 2.227607183158D-04-5.798028723802D-12 0.000000000000D+00
    6.700000000000D+01-3.193750000000D+01 4.794128266114D-09-1.505616299968D+00
   -1.767650246620D-06 1.125490432605D-02 5.228444933891D-06 5.153674690247D+03
    3.816000000000D+05 1.769512891769D-07 1.783800612124D+00-1.657754182816D-07
    9.588795370673D-01 2.761875000000D+02-2.542445255919D+00-8.140339077797D-09
   -3.743013054375D-10 1.000000000000D+00 1.992000000000D+03 0.000000000000D+00
    2.000000000000D+00 0.000000000000D+00-1.117587089539D-08 6.700000000000D+01
    3.809280000000D+05 4.000000000000D+00
13 18  3 15 10  0  0.0-9.552063420415D-05 1.136868377216D-13 0.000000000000D+00
    1.800000000000D+01 4.662500000000D+01 4.668408743677D-09-7.483765168858D-02
    2.574175596237D-06 3.622727817856D-03 6.994232535362D-06 5.153655197144D+03
    3.816000000000D+05 7.450580596924D-09 8.360324484272D-01-9.313225746155D-09
    9.687316115372D-01 2.472500000000D+02 1.617595915866D+00-8.187483898711D-09
    4.064455015151D-10 1.000000000000D+00 1.992000000000D+03 0.000000000000D+00
    2.000000000000D+00 0.000000000000D+00-1.117587089539D-08 1.800000000000D+01
    3.808920000000D+05 4.000000000000D+00
20 18  3 15  9 59 44.0 5.032331682742D-04 1.023181539495D-12 0.000000000000D+00
    9.000000000000D+00-8.562500000000D+01 5.152357473513D-09 9.498223844862D-03
   -4.334375262260D-06 4.334967350587D-03 1.086108386517D-05 5.154826255798D+03
    3.815840000000D+05-3.352761268616D-08-4.353992817277D-01-2.048909664154D-08
    9.283872508955D-01 1.547812500000D+02 1.900935441614D+00-8.361062557530D-09
   -1.267909956396D-10 1.000000000000D+00 1.992000000000D+03 0.000000000000D+00
    2.000000000000D+00 0.000000000000D+00-8.381903171539D-09 9.000000000000D+00
    3.809280000000D+05 4.000000000000D+00
28 18  3 15 10  0  0.0 6.972230039537D-04 3.410605131648D-12 0.000000000000D+00
    8.100000000000D+01 2.993750000000D+01 3.399070156344D-09 2.241732814336D+00
    1.523643732071D-06 1.960894383956D-02 1.238286495209D-05 5.153679956436D+03
    3.816000000000D+05 3.036111593246D-07 2.897896124594D+00-5.401670932770D-08
    9.867965549174D-01 1.487500000000D+02-1.523644039879D+00-7.135297213769D-09
   -1.942938074027D-10 1.000000000000D+00 1.992000000000D+03 0.000000000000D+00
    2.800000000000D+00 0.000000000000D+00-1.117587089539D-08 8.100000000000D+01
    3.809520000000D+05 4.000000000000D+00
15 18  3 15 10  0  0.0-3.564013168216D-04 3.410605131648D-13 0.000000000000D+00
    3.100000000000D+01 5.053125000000D+01 5.503800683962D-09 5.007312808735D-01
    2.918764948845D-06 1.017377420794D-02 8.109956979752D-06 5.153702829361D+03
    3.816000000000D+05-7.450580596924D-09 6.365249150977D-01 1.043081283569D-07
    9.286630738589D-01 2.034687500000D+02 6.718601213508D-01-8.630359489114D-09
    3.510860527148D-10 1.000000000000D+00 1.992000000000D+03 0.000000000000D+00
    2.000000000000D+00 0.000000000000D+00-1.071020960808D-08 3.100000000000D+01
    3.809580000000D+05 4.000000000000D+00
 8 18  3 15 10  0  0.0-9.442772716284D-05-1.364242052659D-12 0.000000000000D+00
    9.200000000000D+01 9.546875000000D+01 4.359467303597D-09 1.689871262150D+00
    4.976987838745D-06 3.416174557060D-03 5.619600415230D-06 5.153778253555D+03
    3.816000000000D+05 4.842877388000D-08-2.436135418956D+00 5.215406417847D-08
    9.688846737300D-01 2.740937500000D+02-5.045982400278D-01-8.108552039454D-09
    3.946592962867D-10 1.000000000000D+00 1.992000000000D+03 0.000000000000D+00
    2.000000000000D+00 0.000000000000D+00 5.587935447693D-09 9.200000000000D+01
    3.809520000000D+05 4.000000000000D+00
21 18  3 15 10  0  0.0-4.193335771561D-04 4.547473508865D-12 0.000000000000D+00
    6.200000000000D+01-5.937500000000D+01 5.135571060006D-09-2.586293736921D+00
   -3.037974238396D-06 2.450030483305D-02 1.266598701477D-06 5.153747629166D+03
    3.816000000000D+05 3.129243850708D-07-1.423549027091D+00 1.862645149231D-07
    9.426487798940D-01 3.363437500000D+02-1.581684499828D+00-8.268915862108D-09
    4.071598169835D-11 1.000000000000D+00 1.992000000000D+03 0.000000000000D+00
    2.000000000000D+00 0.000000000000D+00-1.024454832077D-08 6.200000000000D+01
    3.809580000000D+05 4.000000000000D+00
30 18  3 15 12  0  0.0 9.470712393522D-05-3.637978807092D-12 0.000000000000D+00
    9.900000000000D+01-3.931250000000D+01 5.193430612945D-09-2.830439314473D-01
   -2.255663275719D-06 3.110978170298D-03 5.261972546577D-06 5.153755994797D+03
    3.888000000000D+05 5.960464477539D-08 1.818408237533D+00 2.980232238770D-08
    9.445163264848D-01 2.690625000000D+02-3.132894496717D+00-8.478924609815D-09
   -5.071639825584D-10 1.000000000000D+00 1.992000000000D+03 0.000000000000D+00
    2.800000000000D+00 0.000000000000D+00 3.725290298462D-09 9.900000000000D+01
    3.816180000000D+05 4.000000000000D+00
 7 18  3 15 12  0  0.0 2.227197401226D-04-5.798028723802D-12 0.000000000000D+00
    8.700000000000D+01-3.459375000000D+01 4.979135972428D-09-4.553755407448D-01
   -1.894310116768D-06 1.125553355087D-02 4.868954420090D-06 5.153676385880D+03
    3.888000000000D+05 4.284083843231D-08 1.783741672618D+00 1.937150955200D-07
    9.588748469519D-01 2.825625000000D+02-2.542503970136D+00-8.504639966677D-09
   -4.985921969377D-10 1.000000000000D+00 1.992000000000D+03 0.000000000000D+00
    2.000000000000D+00 0.000000000000D+00-1.117587089539D-08 8.700000000000D+01
    3.816180000000D+05 4.000000000000D+00
21 18  3 15 12  0  0.0-4.193005152047D-04 4.547473508865D-12 0.000000000000D+00
    9.800000000000D+01-4.390625000000D+01 5.255218900961D-09-1.536247635040D+00
   -1.579523086548D-06 2.450146269985D-02 2.205371856689D-06 5.153742767334D+03
    3.888000000000D+05 1.415610313416D-07-1.423608490322D+00 6.631016731262D-07
    9.426471092415D-01 3.254375000000D+02-1.581589572537D+00-8.660003581052D-09
   -9.143237995420D-11 1.000000000000D+00 1.992000000000D+03 0.000000000000D+00
    2.800000000000D+00 0.000000000000D+00-1.024454832077D-08 9.800000000000D+01
    3.816180000000D+05 4.000000000000D+00
20 18  3 15 11 59 44.0 5.032401531935D-04 1.023181539495D-12 0.000000000000D+00
    1.000000000000D+01-9.156250000000D+01 5.130928009461D-09 1.058994521613D+00
   -4.757195711136D-06 4.335796344094D-03 1.113489270210D-05 5.154827539444D+03
    3.887840000000D+05-2.793967723846D-08-4.354595466380D-01-9.313225746155D-08
    9.283866057486D-01 1.484375000000D+02 1.900919409495D+00-8.306417424198D-09
   -1.021471119801D-10 1.000000000000D+00 1.992000000000D+03 0.000000000000D+00
    2.000000000000D+00 0.000000000000D+00-8.381903171539D-09 1.000000000000D+01
    3.816180000000D+05 4.000000000000D+00
 8 18  3 15 12  0  0.0-9.443704038858D-05-1.364242052659D-12 0.000000000000D+00
    9.300000000000D+01 9.490625000000D+01 4.304822170265D-09 2.739542915519D+00
    4.941597580910D-06 3.415290731937D-03 6.295740604401D-06 5.153781530380D+03
    3.888000000000D+05-5.587935447693D-09-2.436193945919D+00 8.195638656616D-08
    9.688876258986D-01 2.613125000000D+02-5.041553957073D-01-8.092122783681D-09
    4.303750697063D-10 1.000000000000D+00 1.992000000000D+03 0.000000000000D+00
    2.000000000000D+00 0.000000000000D+00 5.587935447693D-09 9.300000000000D+01
    3.816180000000D+05 4.000000000000D+00
27 18  3 15 12  0  0.0 3.695134073496D-04 6.821210263297D-13 0.000000000000D+00
    4.800000000000D+01 9.931250000000D+01 4.113028467002D-09 2.465943233554D+00
    5.209818482399D-06 5.676407017745D-03 6.485730409622D-06 5.153682100296D+03
    3.888000000000D+05-1.192092895508D-07-2.428320232622D+00-2.607703208923D-08
    9.770602104339D-01 2.616875000000D+02 3.677186056416D-01-7.984975463422D-09
    4.825200988989D-10 1.000000000000D+00 1.992000000000D+03 0.000000000000D+00
    2.800000000000D+00 0.000000000000D+00 1.862645149231D-09 4.800000000000D+01
    3.816180000000D+05 4.000000000000D+00
15 18  3 15 12  0  0.0-3.563989885151D-04 3.410605131648D-13 0.000000000000D+00
    3.400000000000D+01 5.259375000000D+01 5.539159299647D-09 1.550860456020D+00
    2.896413207054D-06 1.017428166233D-02 8.683651685715D-06 5.153703996658D+03
    3.888000000000D+05-1.564621925354D-07 6.364623738869D-01 1.564621925354D-07
    9.286658709582D-01 1.983125000000D+02 6.719009367653D-01-8.581071721795D-09
    4.425184326689D-10 1.000000000000D+00 1.992000000000D+03 0.000000000000D+00
    2.000000000000D+00 0.000000000000D+00-1.071020960808D-08 3.400000000000D+01
    3.816180000000D+05 4.000000000000D+00
13 18  3 15 12  0  0.0-9.552016854286D-05 1.136868377216D-13 0.000000000000D+00
    3.800000000000D+01 5.281250000000D+01 4.729839873959D-09 9.754852547735D-01
    2.715736627579D-06 3.621861338615D-03 6.934627890587D-06 5.153653327942D+03
    3.888000000000D+05-5.215406417847D-08 8.359733362964D-01-2.235174179077D-08
    9.687347729031D-01 2.505000000000D+02 1.617467193704D+00-8.154268229431D-09
    4.482329564161D-10 1.000000000000D+00 1.992000000000D+03 0.000000000000D+00
    2.000000000000D+00 0.000000000000D+00-1.117587089539D-08 3.800000000000D+01
    3.816180000000D+05 4.000000000000D+00
28 18  3 15 12  0  0.0 6.972476840019D-04 3.410605131648D-12 0.000000000000D+00
    8.200000000000D+01 3.112500000000D+01 3.423714040004D-09-2.991287312358D+00
    1.616775989532D-06 1.960962975863D-02 1.218356192112D-05 5.153678842545D+03
    3.888000000000D+05 2.067536115646D-07 2.897845162380D+00 2.793967723846D-08
    9.867950305568D-01 1.552812500000D+02-1.523640360640D+00-7.092081127932D-09
   -2.135803250493D-10 1.000000000000D+00 1.992000000000D+03 0.000000000000D+00
    2.800000000000D+00 0.000000000000D+00-1.117587089539D-08 8.200000000000D+01
    3.816180000000D+05 4.000000000000D+00
